{
  "type": "FeatureCollection",
  "features": [
    {
      "type": "Feature",
      "properties": {
        "norad_id": 37781,
        "name": "HAIYANG-2A",
        "group": "resource",
        "lat": 38.929491820084635,
        "lon": -8.558387238943032,
        "alt_km": 963.9563638132295,
        "timestamp": "2025-12-24T07:45:05.855713+00:00",
        "meta_object_name": "HAIYANG-2A",
        "meta_object_id": "2011-043A",
        "meta_epoch": "2025-12-23T22:51:10.272672",
        "meta_mean_motion": 13.78836029,
        "meta_eccentricity": 0.00015837,
        "meta_inclination": 99.3374,
        "meta_ra_of_asc_node": 358.7136,
        "meta_arg_of_pericenter": 69.6622,
        "meta_mean_anomaly": 290.47,
        "meta_ephemeris_type": 0,
        "meta_classification_type": "U",
        "meta_norad_cat_id": 37781,
        "meta_element_set_no": 999,
        "meta_rev_at_epoch": 72253,
        "meta_bstar": 3.4624904e-05,
        "meta_mean_motion_dot": -9e-08,
        "meta_mean_motion_ddot": 0,
        "tle_line1": "1 37781U 11043A   25357.95220223 -.00000009  00000+0  34625-4 0  9995",
        "tle_line2": "2 37781  99.3374 358.7136 0001583  69.6622 290.4700 13.78836029722532"
      },
      "geometry": {
        "type": "Point",
        "coordinates": [
          -8.558387238943032,
          38.929491820084635
        ]
      }
    },
    {
      "type": "Feature",
      "properties": {
        "norad_id": 37791,
        "name": "RASAT",
        "group": "resource",
        "lat": -80.33465921766837,
        "lon": -148.94958099301815,
        "alt_km": 683.7466981590333,
        "timestamp": "2025-12-24T07:45:05.855724+00:00",
        "meta_object_name": "RASAT",
        "meta_object_id": "2011-044D",
        "meta_epoch": "2025-12-23T22:52:17.510880",
        "meta_mean_motion": 14.67923152,
        "meta_eccentricity": 0.0021381,
        "meta_inclination": 98.0647,
        "meta_ra_of_asc_node": 87.0444,
        "meta_arg_of_pericenter": 31.1681,
        "meta_mean_anomaly": 79.5604,
        "meta_ephemeris_type": 0,
        "meta_classification_type": "U",
        "meta_norad_cat_id": 37791,
        "meta_element_set_no": 999,
        "meta_rev_at_epoch": 76747,
        "meta_bstar": 7.2747574e-05,
        "meta_mean_motion_dot": 3.68e-06,
        "meta_mean_motion_ddot": 0,
        "tle_line1": "1 37791U 11044D   25357.95298045  .00000368  00000+0  72748-4 0  9999",
        "tle_line2": "2 37791  98.0647  87.0444 0021381  31.1681  79.5604 14.67923152767477"
      },
      "geometry": {
        "type": "Point",
        "coordinates": [
          -148.94958099301815,
          -80.33465921766837
        ]
      }
    },
    {
      "type": "Feature",
      "properties": {
        "norad_id": 37841,
        "name": "SRMSAT",
        "group": "resource",
        "lat": 7.1369672178585235,
        "lon": 58.016010874000614,
        "alt_km": 846.3961389981896,
        "timestamp": "2025-12-24T07:45:05.855734+00:00",
        "meta_object_name": "SRMSAT",
        "meta_object_id": "2011-058D",
        "meta_epoch": "2025-12-23T20:30:47.361312",
        "meta_mean_motion": 14.11515025,
        "meta_eccentricity": 0.00119943,
        "meta_inclination": 19.973,
        "meta_ra_of_asc_node": 40.682,
        "meta_arg_of_pericenter": 75.0703,
        "meta_mean_anomaly": 81.788,
        "meta_ephemeris_type": 0,
        "meta_classification_type": "U",
        "meta_norad_cat_id": 37841,
        "meta_element_set_no": 999,
        "meta_rev_at_epoch": 73301,
        "meta_bstar": 8.1720318e-05,
        "meta_mean_motion_dot": 4.15e-06,
        "meta_mean_motion_ddot": 0,
        "tle_line1": "1 37841U 11058D   25357.85471483  .00000415  00000+0  81720-4 0  9991",
        "tle_line2": "2 37841  19.9730  40.6820 0011994  75.0703  81.7880 14.11515025733011"
      },
      "geometry": {
        "type": "Point",
        "coordinates": [
          58.016010874000614,
          7.1369672178585235
        ]
      }
    },
    {
      "type": "Feature",
      "properties": {
        "norad_id": 38012,
        "name": "PLEIADES 1A",
        "group": "resource",
        "lat": 30.264360079360916,
        "lon": 66.09714574945069,
        "alt_km": 695.6542108936992,
        "timestamp": "2025-12-24T07:45:05.855745+00:00",
        "meta_object_name": "PLEIADES 1A",
        "meta_object_id": "2011-076F",
        "meta_epoch": "2025-12-24T00:09:57.345408",
        "meta_mean_motion": 14.58570647,
        "meta_eccentricity": 0.00011186,
        "meta_inclination": 98.1811,
        "meta_ra_of_asc_node": 70.6014,
        "meta_arg_of_pericenter": 76.4042,
        "meta_mean_anomaly": 95.6541,
        "meta_ephemeris_type": 0,
        "meta_classification_type": "U",
        "meta_norad_cat_id": 38012,
        "meta_element_set_no": 999,
        "meta_rev_at_epoch": 74645,
        "meta_bstar": 7.2951215e-05,
        "meta_mean_motion_dot": 2.94e-06,
        "meta_mean_motion_ddot": 0,
        "tle_line1": "1 38012U 11076F   25358.00691372  .00000294  00000+0  72951-4 0  9992",
        "tle_line2": "2 38012  98.1811  70.6014 0001118  76.4042  95.6541 14.58570647746459"
      },
      "geometry": {
        "type": "Point",
        "coordinates": [
          66.09714574945069,
          30.264360079360916
        ]
      }
    },
    {
      "type": "Feature",
      "properties": {
        "norad_id": 38038,
        "name": "ZIYUAN 1-02C (ZY 1-02C)",
        "group": "resource",
        "lat": 16.56007485935036,
        "lon": -113.34946102341958,
        "alt_km": 762.4995529095286,
        "timestamp": "2025-12-24T07:45:05.855755+00:00",
        "meta_object_name": "ZIYUAN 1-02C (ZY 1-02C)",
        "meta_object_id": "2011-079A",
        "meta_epoch": "2025-12-23T23:26:48.779808",
        "meta_mean_motion": 14.38023962,
        "meta_eccentricity": 0.00075494,
        "meta_inclination": 98.4319,
        "meta_ra_of_asc_node": 63.783,
        "meta_arg_of_pericenter": 109.2197,
        "meta_mean_anomaly": 63.5241,
        "meta_ephemeris_type": 0,
        "meta_classification_type": "U",
        "meta_norad_cat_id": 38038,
        "meta_element_set_no": 999,
        "meta_rev_at_epoch": 73402,
        "meta_bstar": 0.00018223289,
        "meta_mean_motion_dot": 5.08e-06,
        "meta_mean_motion_ddot": 0,
        "tle_line1": "1 38038U 11079A   25357.97695347  .00000508  00000+0  18223-3 0  9993",
        "tle_line2": "2 38038  98.4319  63.7830 0007549 109.2197  63.5241 14.38023962734024"
      },
      "geometry": {
        "type": "Point",
        "coordinates": [
          -113.34946102341958,
          16.56007485935036
        ]
      }
    },
    {
      "type": "Feature",
      "properties": {
        "norad_id": 38338,
        "name": "ARIRANG-3 (KOMPSAT-3)",
        "group": "resource",
        "lat": 58.57600317058258,
        "lon": -60.88120458872592,
        "alt_km": 683.7209574834151,
        "timestamp": "2025-12-24T07:45:05.855765+00:00",
        "meta_object_name": "ARIRANG-3 (KOMPSAT-3)",
        "meta_object_id": "2012-025B",
        "meta_epoch": "2025-12-23T23:15:56.267136",
        "meta_mean_motion": 14.61726676,
        "meta_eccentricity": 0.00047438,
        "meta_inclination": 98.3339,
        "meta_ra_of_asc_node": 312.6443,
        "meta_arg_of_pericenter": 298.5588,
        "meta_mean_anomaly": 61.5135,
        "meta_ephemeris_type": 0,
        "meta_classification_type": "U",
        "meta_norad_cat_id": 38338,
        "meta_element_set_no": 999,
        "meta_rev_at_epoch": 72574,
        "meta_bstar": 0.00012238732,
        "meta_mean_motion_dot": 5.61e-06,
        "meta_mean_motion_ddot": 0,
        "tle_line1": "1 38338U 12025B   25357.96940124  .00000561  00000+0  12239-3 0  9993",
        "tle_line2": "2 38338  98.3339 312.6443 0004743 298.5588  61.5135 14.61726676725740"
      },
      "geometry": {
        "type": "Point",
        "coordinates": [
          -60.88120458872592,
          58.57600317058258
        ]
      }
    },
    {
      "type": "Feature",
      "properties": {
        "norad_id": 38709,
        "name": "EXACTVIEW-1 (ADS-1B)",
        "group": "resource",
        "lat": -34.466872705274795,
        "lon": 113.17588487614552,
        "alt_km": 807.674521459483,
        "timestamp": "2025-12-24T07:45:05.855776+00:00",
        "meta_object_name": "EXACTVIEW-1 (ADS-1B)",
        "meta_object_id": "2012-039C",
        "meta_epoch": "2025-12-23T21:48:12.513888",
        "meta_mean_motion": 14.24912191,
        "meta_eccentricity": 0.00101781,
        "meta_inclination": 98.9638,
        "meta_ra_of_asc_node": 106.5329,
        "meta_arg_of_pericenter": 320.7138,
        "meta_mean_anomaly": 39.3301,
        "meta_ephemeris_type": 0,
        "meta_classification_type": "U",
        "meta_norad_cat_id": 38709,
        "meta_element_set_no": 999,
        "meta_rev_at_epoch": 69774,
        "meta_bstar": 7.813888e-05,
        "meta_mean_motion_dot": 1.36e-06,
        "meta_mean_motion_ddot": 0,
        "tle_line1": "1 38709U 12039C   25357.90847817  .00000136  00000+0  78139-4 0  9999",
        "tle_line2": "2 38709  98.9638 106.5329 0010178 320.7138  39.3301 14.24912191697745"
      },
      "geometry": {
        "type": "Point",
        "coordinates": [
          113.17588487614552,
          -34.466872705274795
        ]
      }
    }
  ]
}